NUSAT-1 (FRESCO)        
1 41557U 16033B   22339.88670980  .00018956  00000+0  47545-3 0  9996
2 41557  97.3899  78.4475 0010846 120.8231  18.5889 15.40016436363719
BEESAT-4                
1 41619U 16040W   22339.65858719  .00021112  00000+0  58531-3 0  9991
2 41619  97.1947  26.0818 0006983 211.2817 148.8013 15.36938026346969
CAS-2T & KS-1Q          
1 41847U 16066G   22339.77327677  .00000737  00000+0  11871-3 0  9995
2 41847  98.5316  44.1093 0363490  57.3197 306.2503 14.38935938318987
NAYIF-1 (EO-88)         
1 42017U 17008BX  22339.72711341  .00027800  00000+0  65843-3 0  9990
2 42017  97.2489  43.8678 0003870  10.3546 349.7780 15.41730473323391
ZHUHAI-1 02 (CAS-4B)    
1 42759U 17034B   22339.82013984  .00003915  00000+0  22770-3 0  9994
2 42759  43.0161 107.2135 0011499 293.1317 196.6063 15.13389488302302
ZHUHAI-1 01 (CAS-4A)    
1 42761U 17034D   22339.84733809  .00003726  00000+0  21676-3 0  9998
2 42761  43.0165 105.7220 0011761 295.9228 200.8500 15.13478147302316
MAX VALIER SAT          
1 42778U 17036P   22339.66100179  .00012263  00000+0  41992-3 0  9995
2 42778  97.1852  15.0102 0011796  78.7129 281.5437 15.30291539303058
RADFXSAT (FOX-1B)       
1 43017U 17073E   22339.66359565  .00006233  00000+0  46022-3 0  9997
2 43017  97.6538 226.7795 0243878 346.9259  12.5704 14.82789158272477
FOX-1D (AO-92)          
1 43137U 18004AC  22339.45961158  .00014877  00000+0  46247-3 0  9991
2 43137  97.3543  53.3320 0008381 111.3215 248.8923 15.33397344272516
DIWATA-2B               
1 43678U 18084H   22339.83174417  .00001256  00000+0  12797-3 0  9995
2 43678  97.9943 115.4028 0011298  81.0379 279.2106 14.92527765223418
ES'HAIL 2               
1 43700U 18090A   22339.76301560  .00000156  00000+0  00000+0 0  9999
2 43700   0.0214 346.3108 0001669 296.3442  92.3354  1.00271254 14744
FOX-1CLIFF (AO-95)      
1 43770U 18099N   22339.72362560  .00003460  00000+0  30197-3 0  9993
2 43770  97.6018  41.5307 0015289  65.3919 294.8894 14.97380285218633
ITASAT 1                
1 43786U 18099AE  22339.77330178  .00002465  00000+0  21651-3 0  9994
2 43786  97.6042  42.5815 0015351  56.5478 303.7210 14.97397125218682
JY1SAT (JO-97)          
1 43803U 18099AX  22339.72396467  .00003694  00000+0  31609-3 0  9991
2 43803  97.6007  42.3566 0015540  57.6321 302.6404 14.98111416218707
UWE-4                   
1 43880U 18111E   22339.73040332  .00003580  00000+0  29784-3 0  9994
2 43880  97.6562 243.0318 0011876 105.9076 254.3457 14.99269068215352
NEXUS (FO-99)           
1 43937U 19003F   22339.79668004  .00018363  00000+0  52879-3 0  9992
2 43937  97.1133   6.8218 0016166 258.6833 101.2595 15.35671134216224
PSAT2 (NO-104)          
1 44354U 19036R   22339.56759872  .00136854 -14167-5  66622-3 0  9994
2 44354  28.5201  52.2739 0144121 132.1991 229.0950 15.67128581191267
JAISAT-1                
1 44419U 19038F   22339.87585906  .00012235  00000+0  55875-3 0  9995
2 44419  97.6562 311.9321 0015579 258.4544 101.4942 15.20633120189077
DUCHIFAT-3              
1 44854U 19089C   22339.88341921  .00003561  00000+0  26904-3 0  9995
2 44854  36.9640 163.1127 0006294 185.7157 309.8302 15.02472669163716
CAS-6 (TIANQIN 1)       
1 44881U 19093C   22339.82322638  .00000565  00000+0  77836-4 0  9990
2 44881  97.8808  56.4752 0014885 354.1133   5.9891 14.81954562160152
RS-44 & BREEZE-KM R/B   
1 44909U 19096E   22339.80024160  .00000017  00000+0  29732-4 0  9995
2 44909  82.5196 116.4521 0216479 279.1191  78.5476 12.79716855137423
ORBITAL FACTORY 2 (OF-2)
1 45113U 19071C   22339.30177075  .00061334  00000+0  79144-3 0  9995
2 45113  51.6341 292.3052 0011636  85.1168 275.1153 15.58316218159880
HUSKYSAT-1 (HO-107)     
1 45119U 19071J   22339.29400826  .00052955  00000+0  76370-3 0  9999
2 45119  51.6349 294.4676 0011252  80.3244 279.9018 15.55394613159845
BY70-2                  
1 45857U 20042B   22339.84726887  .00007771  00000+0  97658-3 0  9995
2 45857  97.9444  55.2157 0008837 277.4457  82.5784 14.82350878130829
SALSAT                  
1 46495U 20068K   22339.84475037  .00003083  00000+0  21867-3 0  9991
2 46495  97.7490 281.4332 0017889  59.4287 300.8701 15.05408091119965
BY70-3                  
1 46839U 20079N   22339.95877071  .00043670  00000+0  70915-3 0  9995
2 46839  97.1816  50.6515 0004980  81.1450  91.7567 15.52590749116747
RADFXSAT-2 (AO-109)     
1 47311U 21002C   22339.85811656  .00012048  00000+0  42827-3 0  9990
2 47311  60.6852  75.5790 0038538  78.8711 281.6709 15.28737162104636
UVSQ-SAT                
1 47438U 21006AB  22339.61863995  .00007753  00000+0  38372-3 0  9998
2 47438  97.4167  35.1383 0012355  46.3785 313.8472 15.18001833103220
DIY-1 (ARDUIQUBE)       
1 47963U 21022AH  22339.53045274  .00029671  00000+0  13535-2 0  9998
2 47963  97.5180 239.4425 0011729 265.7954  94.1941 15.20516812 92873
XW-3 (CAS-9)            
1 50466U 21131B   22339.83457667  .00000237  00000+0  92023-4 0  9995
2 50466  98.5693  56.9032 0004326  12.6491 347.4804 14.38586688 49556
TEVEL-3                 
1 50988U 22002E   22339.96870546  .00008924  00000+0  45260-3 0  9992
2 50988  97.4627  44.1765 0009178 180.0499 304.6974 15.17136236 49393
TEVEL-8                 
1 50989U 22002F   22339.78443900  .00008948  00000+0  45456-3 0  9996
2 50989  97.4642  44.0312 0009289 179.5139 318.6324 15.17076947 49368
TEVEL-5                 
1 50998U 22002Q   22339.94165852  .00009155  00000+0  45684-3 0  9995
2 50998  97.4623  44.3524 0010757 176.2589 358.4213 15.17684226 49409
TEVEL-6                 
1 50999U 22002R   22339.92466282  .00009141  00000+0  45609-3 0  9997
2 50999  97.4616  44.3335 0010608 176.8982 269.9701 15.17690162 49404
TEVEL-1                 
1 51013U 22002AF  22339.97393579  .00008960  00000+0  45478-3 0  9990
2 51013  97.4622  44.1484 0009086 179.3954 305.2785 15.17106845 49391
TEVEL-7                 
1 51062U 22002CG  22339.77890418  .00008995  00000+0  45692-3 0  9992
2 51062  97.4635  44.0074 0009296 178.8536 277.8896 15.17075871 49364
TEVEL-4                 
1 51063U 22002CH  22339.78851559  .00008921  00000+0  45341-3 0  9997
2 51063  97.4634  44.0090 0009294 179.2514 320.4486 15.17058006 49362
TEVEL-2                 
1 51069U 22002CP  22339.77551659  .00008902  00000+0  45161-3 0  9999
2 51069  97.4625  43.9663 0008972 180.7003 320.0063 15.17127909 49360
GREENCUBE               
1 53106U 22080B   22334.45194177 -.00000003  00000+0  00000+0 0  9991
2 53106  70.1746  28.7668 0008951 229.3699 130.6183  6.42557462  8980
YUZGU 9 (RS3S)          
1 53308U 98067TT  22339.88200368  .00119339  00000+0  99145-3 0  9999
2 53308  51.6347 198.5747 0008297 172.0070 188.1060 15.69247444 21453
YUZGU 7 (RS1S)          
1 53309U 98067TU  22339.79635825  .00125679  00000+0  10141-2 0  9992
2 53309  51.6338 198.7459 0008687 175.4840 184.6237 15.69923713 21391
YUZGU 11 (RS5S)         
1 53310U 98067TV  22339.88084538  .00122192  00000+0  10145-2 0  9994
2 53310  51.6349 198.5661 0008517 173.8633 186.2470 15.69249535 21437
YUZGU 12 (RS6S)         
1 53311U 98067TW  22339.90057364  .00136492  00000+0  10639-2 0  9991
2 53311  51.6334 197.9398 0008373 173.1426 186.9688 15.70717808 21461
TSIOLKOVSKY-RYAZAN 1 (*)
1 53312U 98067TX  22339.79957684  .00126402  00000+0  10335-2 0  9996
2 53312  51.6345 198.7748 0008766 175.7209 184.3865 15.69601460 21389
TSIOLKOVSKY-RYAZAN 2 (*)
1 53313U 98067TY  22339.79481198  .00120839  00000+0  98281-3 0  9994
2 53313  51.6349 198.7439 0008338 176.8485 183.2566 15.69754884 21435
YUZGU 10 (RS4S)         
1 53321U 98067TZ  22339.80843188  .00123153  00000+0  10078-2 0  9995
2 53321  51.6343 198.8328 0008478 173.4855 186.6253 15.69596272 21430
RS29S (SXC3-2110 CYCLO*)
1 53373U 22096D   22339.91063666  .00012549  00000+0  47161-3 0  9998
2 53373  97.4279 240.6221 0003120  92.1134  42.7500 15.27303026 18088
RS32S (SXC3-212 MONITO*)
1 53374U 22096E   22339.88990370  .00011568  00000+0  43433-3 0  9994
2 53374  97.4268 240.6151 0003377  88.6222 336.0166 15.27353417 18087
RS34S (SXC3-218 KUZBAS*)
1 53375U 22096F   22339.83799656  .00010403  00000+0  39569-3 0  9996
2 53375  97.4277 240.5369 0003302  90.9835 337.9811 15.26952270 18079
RS23S (SXC3-21 UTMN)    
1 53376U 22096G   22339.91191752  .00010718  00000+0  40664-3 0  9996
2 53376  97.4274 240.6181 0003279  87.1459  45.4504 15.27028035 18088
RS28S (SXC3-214 MIET-A*)
1 53377U 22096H   22339.91140300  .00009897  00000+0  37650-3 0  9997
2 53377  97.4282 240.6220 0003405  87.7434  44.9471 15.26962116 18085
RS26S (KAI-1)           
1 53378U 22096J   22339.91638706  .00008992  00000+0  34444-3 0  9993
2 53378  97.4281 240.6120 0003417  84.0153  46.6549 15.26762239 18084
RS19S (SXC3-219 ISOI)   
1 53381U 22096M   22339.80144824  .00009446  00000+0  35394-3 0  9998
2 53381  97.4274 240.5926 0005802  45.3117  42.5600 15.27469639 18074
RS21S (CUBESX-HSE-2)    
1 53383U 22096P   22339.85918307  .00010728  00000+0  40077-3 0  9999
2 53383  97.4281 240.6602 0006006  45.6310  17.1068 15.27529061 18084
RS30S (SXC3-217 SIREN)  
1 53384U 22096Q   22339.86282222  .00009631  00000+0  36193-3 0  9996
2 53384  97.4279 240.6545 0005923  45.0861  19.4925 15.27364615 18089
RS20S (GEOSCAN-EDELVEIS)
1 53385U 22096R   22339.82880487  .00013303  00000+0  48504-3 0  9990
2 53385  97.4266 240.7006 0006315  43.5470  29.0806 15.28274301 18116
RS33S (SXC3-215 VIZARD) 
1 53386U 22096S   22339.93381078  .00015460  00000+0  54941-3 0  9993
2 53386  97.4272 240.8885 0007182  42.2706  86.4616 15.29077082 18126
